     2.100          NAVIGATION                              RINEX VERSION / TYPE
fic2rin                                 12/15/2015 00:05:33 PGM / RUN BY / DATE
                                                            END OF HEADER
 1 15 12 14 22  0  0.0  .666128471494D-05  .909494701773D-12  .000000000000D+00
     .680000000000D+02 -.572187500000D+02  .420981821297D-08  .131737006863D+01
    -.300630927086D-05  .487675040495D-02  .112503767014D-04  .515366203117D+04
     .165600000000D+06 -.204890966415D-07  .723150432975D+00  .540167093277D-07
     .963403892108D+00  .163906250000D+03  .492140221307D+00 -.781246827781D-08
     .279297348141D-09  .100000000000D+01  .187500000000D+04  .000000000000D+00
     .240000000000D+01  .000000000000D+00  .512227416039D-08  .680000000000D+02
     .158406000000D+06  .400000000000D+01
 2 15 12 14 22  0  0.0  .597869046032D-03  .682121026330D-12  .000000000000D+00
     .460000000000D+02 -.575625000000D+02  .458697678028D-08  .187699241586D+01
    -.302307307720D-05  .150966817746D-01  .114031136036D-04  .515369231987D+04
     .165600000000D+06 -.311061739922D-06  .681194728049D+00 -.277534127235D-06
     .942137510506D+00  .150343750000D+03 -.220293543836D+01 -.800426198107D-08
     .345014371233D-09  .100000000000D+01  .187500000000D+04  .000000000000D+00
     .240000000000D+01  .000000000000D+00 -.204890966415D-07  .460000000000D+02
     .158406000000D+06  .400000000000D+01
 5 15 12 14 22  0  0.0 -.165033154190D-03  .363797880709D-11  .000000000000D+00
     .580000000000D+02  .307187500000D+02  .524593279987D-08 -.198714191100D+01
     .132992863655D-05  .456098897848D-02  .622309744358D-05  .515368860435D+04
     .165600000000D+06  .298023223877D-07  .175463876510D+01 -.391155481339D-07
     .945872682685D+00  .250250000000D+03  .483226061654D+00 -.832713257278D-08
     .414302971667D-09  .100000000000D+01  .187500000000D+04  .000000000000D+00
     .240000000000D+01  .000000000000D+00 -.107102096081D-07  .580000000000D+02
     .158406000000D+06  .400000000000D+01
 6 15 12 14 22  0  0.0  .112207140774D-03  .648014975013D-11  .000000000000D+00
     .150000000000D+02 -.479687500000D+02  .410338520818D-08 -.302895398432D+01
    -.240094959736D-05  .229880795814D-03  .110212713480D-04  .515360596085D+04
     .165600000000D+06  .149011611938D-07  .714694588001D+00 -.242143869400D-07
     .963266652837D+00  .167437500000D+03 -.301070651411D+01 -.776103756408D-08
     .361086469272D-09  .100000000000D+01  .187500000000D+04  .000000000000D+00
     .240000000000D+01  .000000000000D+00  .419095158577D-08  .150000000000D+02
     .158406000000D+06  .400000000000D+01
 7 15 12 14 22  0  0.0  .477362424135D-03 -.125055521494D-11  .000000000000D+00
     .240000000000D+02  .757500000000D+02  .422767609968D-08  .645501686182D+00
     .411644577980D-05  .899964955170D-02  .101178884506D-04  .515368983841D+04
     .165600000000D+06 -.167638063431D-07 -.240065252234D+01  .139698386192D-06
     .968408450008D+00  .186968750000D+03 -.267831168934D+01 -.794140221985D-08
    -.207151485834D-09  .100000000000D+01  .187500000000D+04  .000000000000D+00
     .240000000000D+01  .000000000000D+00 -.111758708954D-07  .240000000000D+02
     .158406000000D+06  .400000000000D+01
 8 15 12 14 22  0  0.0 -.162129290402D-04 -.147792889038D-11  .000000000000D+00
     .130000000000D+02 -.104906250000D+03  .456590447396D-08 -.144467671236D+01
    -.534392893314D-05  .162783730775D-02  .428222119808D-05  .515361998558D+04
     .165600000000D+06  .167638063431D-07 -.335298579652D+00  .856816768646D-07
     .961775181523D+00  .298937500000D+03 -.159242759528D+01 -.834784772137D-08
    -.217509060125D-09  .100000000000D+01  .187500000000D+04  .000000000000D+00
     .240000000000D+01  .000000000000D+00  .465661287308D-08  .130000000000D+02
     .158406000000D+06  .400000000000D+01
 9 15 12 14 22  0  0.0  .286167487502D-04  .807176547823D-11  .000000000000D+00
     .730000000000D+02 -.155625000000D+02  .496592113626D-08 -.288359435072D+01
    -.774860382080D-06  .492139370181D-03  .732764601707D-05  .515367034912D+04
     .165600000000D+06  .111758708954D-07  .280551029656D+01  .149011611938D-07
     .956243749288D+00  .237968750000D+03  .195597342313D+01 -.817141180067D-08
    -.432518016111D-09  .100000000000D+01  .187500000000D+04  .000000000000D+00
     .340000000000D+01  .000000000000D+00  .931322574615D-09  .730000000000D+02
     .158406000000D+06  .400000000000D+01
10 15 12 14 22  0  0.0  .424669124186D-04  .545696821064D-11  .000000000000D+00
     .120000000000D+02  .246250000000D+02  .491770484215D-08 -.721831748378D+00
     .127963721752D-05  .909061287530D-03  .664964318275D-05  .515367714500D+04
     .165600000000D+06  .540167093277D-07  .176019312857D+01  .186264514923D-07
     .959010832502D+00  .249406250000D+03 -.295828943665D+01 -.814426781287D-08
     .389301930274D-09  .100000000000D+01  .187500000000D+04  .000000000000D+00
     .240000000000D+01  .000000000000D+00  .325962901115D-08  .120000000000D+02
     .158406000000D+06  .400000000000D+01
11 15 12 14 22  0  0.0 -.621735118330D-03 -.204636307899D-11  .000000000000D+00
     .870000000000D+02 -.104562500000D+03  .587238746565D-08  .756202600496D+00
    -.552274286747D-05  .162499952130D-01  .993348658085D-05  .515364846420D+04
     .165600000000D+06 -.204890966415D-06  .357998299129D+00 -.137835741043D-06
     .895285771332D+00  .158156250000D+03  .148875864729D+01 -.892287167342D-08
    -.607168148133D-11  .100000000000D+01  .187500000000D+04  .000000000000D+00
     .240000000000D+01  .000000000000D+00 -.121071934700D-07  .870000000000D+02
     .158406000000D+06  .400000000000D+01
12 15 12 14 22  0  0.0  .353317242116D-03  .295585778076D-11  .000000000000D+00
     .940000000000D+02  .504062500000D+02  .413338645785D-08  .250084273014D+00
     .262260437012D-05  .561127800029D-02  .221654772758D-05  .515356051064D+04
     .165600000000D+06  .614672899246D-07 -.132759676277D+01  .134110450745D-06
     .990007338259D+00  .351375000000D+03  .639170437134D+00 -.819784147300D-08
     .100718481043D-09  .100000000000D+01  .187500000000D+04  .000000000000D+00
     .240000000000D+01  .000000000000D+00 -.125728547573D-07  .940000000000D+02
     .158406000000D+06  .400000000000D+01
13 15 12 14 22  0  0.0 -.171379186213D-03 -.272848410532D-11  .000000000000D+00
     .410000000000D+02 -.550000000000D+01  .438196824085D-08  .157778684865D+01
    -.329688191414D-06  .464628264308D-02  .869669020176D-05  .515368469620D+04
     .165600000000D+06  .353902578354D-07  .292365207304D+01 -.447034835815D-07
     .972869852757D+00  .218062500000D+03  .200997433324D+01 -.783425489959D-08
    -.518950187787D-09  .100000000000D+01  .187500000000D+04  .000000000000D+00
     .240000000000D+01  .000000000000D+00 -.111758708954D-07  .410000000000D+02
     .158406000000D+06  .400000000000D+01
14 15 12 14 22  0  0.0  .154632143676D-04 -.238742359215D-11  .000000000000D+00
     .105000000000D+03 -.606250000000D+01  .457554773279D-08 -.284521348947D+01
    -.238418579102D-06  .832319923211D-02  .839121639729D-05  .515369435310D+04
     .165600000000D+06  .189989805222D-06  .288771064232D+01 -.558793544769D-07
     .965333669771D+00  .217531250000D+03 -.194681770351D+01 -.784246952748D-08
    -.517521556850D-09  .100000000000D+01  .187500000000D+04  .000000000000D+00
     .340000000000D+01  .000000000000D+00 -.931322574615D-08  .105000000000D+03
     .158406000000D+06  .400000000000D+01
15 15 12 14 22  0  0.0 -.287189614028D-03 -.193267624127D-11  .000000000000D+00
     .128000000000D+03 -.191250000000D+02  .543236913712D-08  .268378293566D+01
    -.100024044514D-05  .790316727944D-02  .755116343498D-05  .515376366806D+04
     .165600000000D+06 -.128522515297D-06  .275701994284D+01 -.670552253723D-07
     .931990836519D+00  .219468750000D+03  .450930446606D+00 -.827784480546D-08
    -.475734101949D-09  .100000000000D+01  .187500000000D+04  .000000000000D+00
     .240000000000D+01  .000000000000D+00 -.107102096081D-07  .128000000000D+03
     .158406000000D+06  .400000000000D+01
16 15 12 14 22  0  0.0 -.573634169996D-04  .341060513165D-11  .000000000000D+00
     .730000000000D+02  .568750000000D+02  .403981113149D-08 -.180426672487D+01
     .290572643280D-05  .827178708278D-02  .267289578915D-05  .515367065048D+04
     .165600000000D+06  .186264514923D-08 -.130884760090D+01 -.122934579849D-06
     .990536379176D+00  .344968750000D+03  .313645627799D+00 -.807390773924D-08
     .265011038773D-09  .100000000000D+01  .187500000000D+04  .000000000000D+00
     .240000000000D+01  .000000000000D+00 -.102445483208D-07  .730000000000D+02
     .158406000000D+06  .400000000000D+01
17 15 12 14 22  0  0.0 -.196559354663D-03 -.113686837722D-11  .000000000000D+00
     .910000000000D+02 -.120281250000D+03  .405838333367D-08 -.277913132348D+01
    -.613927841187D-05  .108017356833D-01  .520981848240D-05  .515361284065D+04
     .165600000000D+06  .119209289551D-06 -.284976076112D+00 -.104308128357D-06
     .974952326883D+00  .285125000000D+03 -.198475315742D+01 -.783389774186D-08
    -.141791620476D-09  .100000000000D+01  .187500000000D+04  .000000000000D+00
     .240000000000D+01  .000000000000D+00 -.107102096081D-07  .910000000000D+02
     .158406000000D+06  .400000000000D+01
18 15 12 14 22  0  0.0  .462726224214D-03  .375166564481D-11  .000000000000D+00
     .150000000000D+02  .320625000000D+02  .578059792796D-08 -.123785968105D+01
     .204332172871D-05  .164150283672D-01  .613369047642D-05  .515364031219D+04
     .165600000000D+06  .154599547386D-06  .173711880259D+01  .443309545517D-06
     .924486672421D+00  .241406250000D+03 -.192521012407D+01 -.866500378933D-08
     .378587198248D-09  .100000000000D+01  .187500000000D+04  .000000000000D+00
     .240000000000D+01  .000000000000D+00 -.111758708954D-07  .150000000000D+02
     .158406000000D+06  .400000000000D+01
